IRIDIUM 36              
1 24967U 97056C   24238.55270098  .00000871  00000+0  28744-3 0  9993
2 24967  86.3953 297.1736 0002068  95.6220 264.5213 14.36980946409757
IRIDIUM 39              
1 25042U 97069D   24238.52396429  .00001849  00000+0  48966-3 0  9990
2 25042  86.3965 337.8800 0017260 207.5298 152.4993 14.48229417406151
IRIDIUM 38              
1 25043U 97069E   24238.81690640  .00001191  00000+0  39190-3 0  9994
2 25043  86.4011 357.4061 0002405  45.3037 314.8356 14.37448732403779
IRIDIUM 42              
1 25077U 97077A   24238.60408577  .00001144  00000+0  38957-3 0  9991
2 25077  86.4013   3.2959 0002231  75.6540 284.4904 14.35730249398771
IRIDIUM 44              
1 25078U 97077B   24238.58777577  .00001145  00000+0  36057-3 0  9998
2 25078  86.4009 346.0320 0000359  62.7123 297.4112 14.39578969401166
IRIDIUM 45              
1 25104U 97082A   24238.58663016  .00032241  00000+0  16802-2 0  9992
2 25104  86.3743 189.6176 0150114 347.9954  11.7715 15.06508160407292
IRIDIUM 24              
1 25105U 97082B   24238.38172680  .00001391  00000+0  42352-3 0  9995
2 25105  86.3940 205.5842 0010771 347.2449  12.8476 14.41376114400598
IRIDIUM 51              
1 25262U 98018A   24238.88687377  .00025895  00000+0  10991-2 0  9996
2 25262  86.3977 199.0576 0131248 285.3683  73.3087 15.15365478402177
